CZ-2F DEB               
1 67718U 26024E   26043.62799340  .00275911  00000+0  57017-2 0  9994
2 67718  50.3159 140.9010 0269175 181.5753 178.4382 15.14297138   823
CZ-2F DEB               
1 67719U 26024F   26043.69545620  .00206133  00000+0  53783-2 0  9998
2 67719  49.7904 141.4842 0340477 171.3879 189.3110 14.95505376   491
CZ-2F DEB               
1 67720U 26024G   26043.83919798  .00196459  00000+0  52585-2 0  9995
2 67720  49.8301 140.8943 0351002 168.6872 192.2223 14.92897706   832
